HORUS 2                 
1 55844U 23032A   24042.78485127  .00013158  00000+0  55853-3 0  9996
2 55844  97.4412 119.5098 0003526 175.3249 184.8021 15.23207168 51101
GLOBAL-19               
1 55982U 23041B   24042.70418255  .00038860  00000+0  10075-2 0  9992
2 55982  42.0135 158.7020 0003991   4.4706 355.6169 15.38308702 50009
DEWASAT-2               
1 56180U 23054C   24042.84558116  .00038767  00000+0  11979-2 0  9993
2 56180  97.3839 300.6322 0005648 275.4831  84.5767 15.33408151 46749
KILICSAT                
1 56181U 23054D   24042.84714340  .00028970  00000+0  95762-3 0  9995
2 56181  97.3792 300.1611 0005289 272.4455  87.6180 15.31310045 46738
SSS-2B                  
1 56184U 23054G   24042.84993119  .00032942  00000+0  10617-2 0  9990
2 56184  97.3859 300.5632 0006163 270.8354  89.2181 15.32092742 46746
BRO-9                   
1 56185U 23054H   24042.77000198  .00017338  00000+0  65437-3 0  9992
2 56185  97.3776 299.2301 0006276 265.0669  94.9854 15.27073257 46678
CIRBE                   
1 56188U 23054L   24042.26603437  .00053354  00000+0  14704-2 0  9992
2 56188  97.3792 300.5287 0004430 258.0028 102.0719 15.36939597 46702
ION SCV-010             
1 56192U 23054Q   24042.61370932  .00004768  00000+0  34263-3 0  9995
2 56192  97.4864 295.1285 0012330 180.0532 180.0696 15.04676948 46159
GHOST-1                 
1 56195U 23054T   24042.23882870  .00013308  00000+0  50002-3 0  9994
2 56195  97.3799 298.9652 0007789 250.5415 109.4983 15.27273193 46606
GHOST-2                 
1 56197U 23054V   24042.69743508  .00018458  00000+0  66419-3 0  9990
2 56197  97.3791 299.7031 0008098 248.9173 111.1201 15.28620897 46696
TOMORROW-R1             
1 56199U 23054X   24042.26657149  .00022411  00000+0  76005-3 0  9996
2 56199  97.3814 299.7520 0007911 252.4698 107.5678 15.30516787 46650
FACSAT-2                
1 56205U 23054AD  24042.79538629  .00018734  00000+0  63142-3 0  9994
2 56205  97.3834 300.6521 0010864 237.5995 122.4195 15.30727669 46752
CONNECTA T2.1           
1 56210U 23054AJ  24042.79937051  .00017582  00000+0  61236-3 0  9994
2 56210  97.3760 300.0412 0009968 234.7665 125.2643 15.29684174 46733
INSPIRE-SAT 7           
1 56211U 23054AK  24042.24975763  .00049645  00000+0  13072-2 0  9996
2 56211  97.3829 301.4101 0007958 235.2553 124.7943 15.38349728 46751
ROSEYCUBESAT-1          
1 56212U 23054AL  24042.85289980  .00053819  00000+0  13492-2 0  9997
2 56212  97.3830 302.3033 0007875 227.9450 132.1127 15.39837114 46861
LS3C                    
1 56214U 23054AN  24042.65129939  .00051024  00000+0  13856-2 0  9994
2 56214  97.3779 301.4484 0008640 230.7753 129.2725 15.37382862 46802
IRIS-C                  
1 56221U 23054AV  24042.68805328  .00045482  00000+0  13347-2 0  9994
2 56221  97.3791 300.6502 0007271 234.6037 125.4527 15.34995573 46740
DISCO-1                 
1 56222U 23054AW  24042.18714131  .00028703  00000+0  93802-3 0  9993
2 56222  97.3773 299.5949 0008532 249.9660 110.0663 15.31658496 46630
VIREO                   
1 56223U 23054AX  24042.81128210  .00042881  00000+0  10528-2 0  9997
2 56223  97.3751 301.5928 0005401 223.2115 136.8709 15.40544350 46832
REVELA                  
1 56224U 23054AY  24042.61971905  .00034074  00000+0  10586-2 0  9992
2 56224  97.3788 300.5865 0004676 235.9139 124.1660 15.33268726 46738
ISTANBUL                
1 56230U 23084BP  24042.78657513  .00261772  00000+0  49171-2 0  9995
2 56230  97.5123 164.9848 0001761  31.3616 328.7739 15.47617469 37155
TELEOS-2                
1 56310U 23057C   24042.02067714  .00015463  00000+0  12641-2 0  9995
2 56310   9.9893 325.3995 0000943 259.8010 100.2098 14.96465186 44190
SNIPE 4                 
1 56744U 23072B   24042.76217313  .00012438  00000+0  74884-3 0  9993
2 56744  97.5486 230.8417 0013560 103.1219 257.1525 15.10876138 39564
SNIPE 2                 
1 56745U 23072C   24042.79417046  .00016663  00000+0  97571-3 0  9994
2 56745  97.5537 231.0073 0008574 124.6015 235.6025 15.11862063 39574
2023-072G               
1 56749U 23072G   24042.76459865  .00014367  00000+0  83177-3 0  9996
2 56749  97.5286 230.5208 0010016 125.7623 234.4541 15.12292756 39582
OTTER PUP               
1 56933U 23084B   24042.77747254  .00017357  00000+0  81853-3 0  9998
2 56933  97.5238 161.8272 0008894  76.2516 283.9708 15.19509679 36946
GEISAT PRECURSOR        
1 56934U 23084C   24042.82638275  .00015105  00000+0  77813-3 0  9997
2 56934  97.5285 161.4714 0009847 107.8700 252.3608 15.16445358 36917
EIVE                    
1 56937U 23084F   24042.79442148  .00027024  00000+0  12652-2 0  9990
2 56937  97.5246 161.8624 0008272 102.7779 257.4380 15.19670715 36948
LAYAN-23                
1 56939U 23084H   24042.82360450  .00028957  00000+0  13126-2 0  9994
2 56939  97.5240 162.1458 0008443  96.8027 263.4169 15.20769118 36964
AFRL-XVI                
1 56942U 23084L   24042.31482203  .00025628  00000+0  11795-2 0  9995
2 56942  97.5282 161.7065 0009582  99.7744 260.4573 15.20263155 36883
BLACKJACK ACES-3        
1 56950U 23084U   24042.29911002  .00013021  00000+0  62370-3 0  9995
2 56950  97.5284 161.3817 0012108  91.4486 268.8135 15.19004389 36869
QPS-SAR-6 AMATERU-III   
1 56951U 23084V   24042.78543024  .00041011  00000+0  16982-2 0  9992
2 56951  97.5256 162.6822 0009020  83.8483 276.3781 15.23768309 36999
BLACKJACK ACES-4        
1 56952U 23084W   24042.31261075  .00016822  00000+0  81108-3 0  9990
2 56952  97.5276 161.4950 0012377  91.7044 268.5608 15.18714195 36877
BLACKJACK ACES-2        
1 56955U 23084Z   24042.29852917  .00017760  00000+0  84977-3 0  9990
2 56955  97.5278 161.3621 0012478  95.1676 265.0983 15.18966669 36869
BLACKJACK ACES-1        
1 56956U 23084AA  24042.31196337  .00017128  00000+0  82518-3 0  9998
2 56956  97.5271 161.5050 0012741  96.9821 263.2863 15.18732602 36871
ION SCV-011             
1 56957U 23084AB  24042.28729943  .00001186  00000+0  18187-3 0  9998
2 56957  98.0420 162.4151 0071471 351.8383   8.1656 14.73872913 36053
GHOST-3                 
1 56958U 23084AC  24042.32376075  .00011895  00000+0  59956-3 0  9995
2 56958  97.5286 161.3541 0013687  95.1797 265.0999 15.17231033 36865
PHOTON-04               
1 56959U 23084AD  24042.79292018  .00012943  00000+0  65351-3 0  9992
2 56959  97.5287 161.7948 0013804  94.5796 265.7015 15.17146082 36938
TOMORROW-R2             
1 56962U 23084AG  24042.29826659  .00014619  00000+0  71140-3 0  9990
2 56962  97.5273 161.5162 0013716  93.4296 266.8507 15.18409381 36874
AFR-1                   
1 56964U 23084AJ  24042.81200170  .00007829  00000+0  41265-3 0  9994
2 56964  97.5303 161.6633 0015251  93.0548 267.2430 15.15757573 36928
DROID.001               
1 56965U 23084AK  24042.33708928  .00017066  00000+0  82177-3 0  9997
2 56965  97.5257 161.5647 0013413  89.2057 271.0714 15.18744077 36882
MUSAT1                  
1 56967U 23084AM  24042.28099514  .00039752  00000+0  16114-2 0  9990
2 56967  97.5229 162.3795 0010986  82.8739 277.3747 15.24475118 36939
AII-DELTA               
1 56987U 23084BH  24042.82989882  .00031915  00000+0  13335-2 0  9993
2 56987  97.5196 162.7681 0012961  75.8252 284.4424 15.23482150 37013
SPEI SATELLES           
1 56991U 23084BT  24042.32707824  .00025251  00000+0  11213-2 0  9996
2 56991  97.5232 161.9648 0011237  78.3637 281.8859 15.21479527 36916
URESAT-1                
1 56992U 23084BU  24042.79248154  .00032151  00000+0  14736-2 0  9994
2 56992  97.5196 161.7143 0015392 107.3842 252.9078 15.20290543 36933
MRC-100                 
1 56993U 23084BV  24042.48450515  .00034188  00000+0  15301-2 0  9998
2 56993  97.5199 161.5295 0014776 108.4325 251.8518 15.21102611 36909
METEOR-M2 3             
1 57166U 23091A   24042.76965297  .00000061  00000+0  46074-4 0  9994
2 57166  98.7324  98.4712 0004842 128.3415 231.8199 14.23870653 32639
STRATOSAT-TK 1 (RS52S)  
1 57167U 23091B   24042.86218076  .00016145  00000+0  10441-2 0  9999
2 57167  97.6317  96.5819 0016303 186.6088 173.4928 15.08165134 34497
UMKA 1 (RS40S)          
1 57172U 23091G   24042.87677689  .00007420  00000+0  51499-3 0  9990
2 57172  97.6322  96.2544 0017123 186.7452 173.3546 15.05748248 34471
2023-091H               
1 57173U 23091H   24042.84017357  .00009900  00000+0  68280-3 0  9999
2 57173  97.6305  96.1488 0015312 197.7542 162.3152 15.05916749 34462
2023-091J               
1 57174U 23091J   24042.86193163  .00003751  00000+0  27169-3 0  9991
2 57174  97.6327  95.9653 0015467 195.1106 164.9660 15.04495031 34453
CUBEBEL 2 (EU11S)       
1 57175U 23091K   24042.79082765  .00010631  00000+0  73452-3 0  9990
2 57175  97.6316  96.0505 0015274 198.8842 161.1820 15.05831778 34453
SITRO-AIS 5 (KATYS)     
1 57176U 23091L   24042.68706627  .00012079  00000+0  82757-3 0  9995
2 57176  97.6328  96.0713 0018231 189.2623 170.8271 15.06069494 34440
ZORKIY 2M               
1 57177U 23091M   24042.81835205  .00009928  00000+0  68577-3 0  9999
2 57177  97.6336  96.2316 0018063 183.8317 176.2775 15.05820297 34460
CUBESX-HSE 3 (RS42S)    
1 57178U 23091N   24042.84861832  .00009638  00000+0  65573-3 0  9999
2 57178  97.6345  96.4023 0018010 182.5450 177.5688 15.06395184 34475
MONITOR-3 (RS58S)       
1 57180U 23091Q   24042.80392205  .00010750  00000+0  73604-3 0  9992
2 57180  97.6350  96.2893 0018257 181.8837 178.2324 15.06125869 34466
MONITOR-4 (RS57S)       
1 57182U 23091S   24042.80508184  .00010624  00000+0  72758-3 0  9998
2 57182  97.6346  96.2719 0018236 182.6861 177.4271 15.06120066 34469
MONITOR-2 (RS39S)       
1 57184U 23091U   24042.79448574  .00007080  00000+0  48717-3 0  9994
2 57184  97.6348  96.4532 0014668 174.9043 185.2336 15.06118752 34478
SVYATOBOR 1 (RS60S)     
1 57187U 23091X   24042.78495846  .00009222  00000+0  61799-3 0  9995
2 57187  97.6344  96.6230 0014304 173.7472 186.3937 15.07019253 34481
